STARLINK-37406          
1 69199U 26114T   26162.24233241  .00202070  00000+0  10023-2 0  9994
2 69199  53.1585 231.8983 0001672  46.0827 314.0334 15.80899406  3832
STARLINK-37761          
1 69200U 26114U   26161.73581709 -.00397481  00000+0 -21196-2 0  9991
2 69200  53.1585 234.4280 0004054 299.9066  60.1554 15.80693581  3755
STARLINK-37754          
1 69201U 26114V   26162.24063668  .00187137  00000+0  92911-3 0  9995
2 69201  53.1584 231.8870 0001238  52.8563 307.2573 15.80923082  3837
STARLINK-37649          
1 69202U 26114W   26162.24008293  .00261142  00000+0  12820-2 0  9998
2 69202  53.1584 231.8837 0002192  33.7998 326.3164 15.80956533  3836
STARLINK-37604          
1 69203U 26114X   26162.23933139  .00234057  00000+0  11535-2 0  9991
2 69203  53.1582 231.8792 0001624  36.1454 323.9678 15.80948391  3834
STARLINK-37669          
1 69204U 26114Y   26162.23857976  .00191698  00000+0  95073-3 0  9999
2 69204  53.1584 231.8734 0001411  42.1050 318.0081 15.80933024  3836
STARLINK-37691          
1 69205U 26114Z   26162.24243540  .00149379  00000+0  84755-3 0  9991
2 69205  53.1592 231.8984 0001416  60.2419 299.8743 15.78098235  3832
STARLINK-37671          
1 69206U 26114AA  26162.23708003  .00251199  00000+0  12345-2 0  9990
2 69206  53.1583 231.8629 0001466  51.4632 308.6522 15.80961968  3832
STARLINK-37647          
1 69207U 26114AB  26162.23782959  .00178656  00000+0  88742-3 0  9994
2 69207  53.1586 231.8688 0001337  42.5166 317.5960 15.80938416  3838
STARLINK-37562          
1 69208U 26114AC  26162.25002315  .00048655  00000+0  28310-3 0  9998
2 69208  53.1594 231.7983 0001112  98.8921 334.3543 15.78004237  3868
STARLINK-37682          
1 69209U 26114AD  26162.23483007  .00265303  00000+0  13014-2 0  9993
2 69209  53.1583 231.8475 0001265  64.1970 295.9183 15.80963558  3835
STARLINK-37402          
1 69210U 26114AE  26162.23407966  .00192805  00000+0  95584-3 0  9994
2 69210  53.1584 231.8426 0001689  35.4809 324.6326 15.80938329  3833
STARLINK-37613          
1 69211U 26115A   26162.25002315 -.02733524  00000+0 -44898-1 0  9990
2 69211  97.2838 179.2986 0001391 117.4410 198.1300 15.55933550  3738
STARLINK-37713          
1 69212U 26115B   26162.25002315 -.01709499  00000+0 -17437-1 0  9993
2 69212  97.2846 179.3708 0001718  79.8709  34.9689 15.68189785  3730
STARLINK-37716          
1 69213U 26115C   26162.25002315 -.02681139  00000+0 -19468-1 0  9991
2 69213  97.2842 179.3863 0001667  80.5773  77.0246 15.76571058  3736
STARLINK-37620          
1 69214U 26115D   26162.25002315 -.03241963  00000+0 -62133-1 0  9997
2 69214  97.2844 179.2728 0001509  84.8547 164.1469 15.51747418  3732
STARLINK-37700          
1 69215U 26115E   26162.25002315  .00000698  00000+0  14497-4 0  9994
2 69215  97.2845 179.1838 0001110  98.2430 300.5283 15.49183616  3734
STARLINK-37766          
1 69216U 26115F   26162.25002315 -.02064025  00000+0 -13783-1 0  9997
2 69216  97.2838 179.3958 0001762  81.7614  97.9815 15.78663362  3737
STARLINK-37763          
1 69217U 26115G   26162.25002315 -.00758943  00000+0 -62569-2 0  9992
2 69217  97.2845 179.3870 0001150  85.8362  72.7898 15.72430564  3737
STARLINK-37724          
1 69218U 26115H   26162.21628044  .00162735  00000+0  83165-3 0  9994
2 69218  97.2833 179.3657 0001223 110.3669 249.7731 15.80893161  3741
STARLINK-37758          
1 69219U 26115J   26162.21307288  .00246978  00000+0  12484-2 0  9996
2 69219  97.2826 179.3705 0000857  59.7117 300.4236 15.80914400  3749
STARLINK-37201          
1 69220U 26115K   26162.21430737  .00214388  00000+0  10886-2 0  9998
2 69220  97.2833 179.3691 0000855   1.2553 358.8717 15.80899143  3744
STARLINK-37728          
1 69221U 26115L   26162.21188820  .00226569  00000+0  11479-2 0  9995
2 69221  97.2829 179.3727 0000631  48.1452 311.9870 15.80915800  3749
STARLINK-37760          
1 69222U 26115M   26162.21463094  .00174722  00000+0  89158-3 0  9998
2 69222  97.2832 179.3691 0001108  85.6139 274.5256 15.80894105  3748
STARLINK-37759          
1 69223U 26115N   26162.25002315 -.02609790  00000+0 -22219-1 0  9993
2 69223  97.2844 179.4037 0001694  87.4337 112.6118 15.72829493  3734
STARLINK-37725          
1 69224U 26115P   26162.21163193  .00262579  00000+0  13247-2 0  9990
2 69224  97.2829 179.3728 0000997  76.4801 283.6578 15.80915717  3747
STARLINK-37770          
1 69225U 26115Q   26162.21234162  .00219767  00000+0  11144-2 0  9991
2 69225  97.2831 179.3713 0000950  63.9445 296.1921 15.80914829  3743
STARLINK-37736          
1 69226U 26115R   26161.95843097  .00264401  00000+0  13338-2 0  9997
2 69226  97.2824 179.1048 0002666  58.0756 302.0772 15.80911383  3700
STARLINK-37737          
1 69227U 26115S   26162.14633429  .00199429  00000+0  10144-2 0  9995
2 69227  97.2828 179.3083 0001134  79.5873 280.5523 15.80898997  3735
STARLINK-37618          
1 69228U 26115T   26162.25002315 -.02581437  00000+0 -23102-1 0  9997
2 69228  97.2843 179.4116 0001801  83.9843 134.8169 15.71620067  3736
