OBJECT_NAME,OBJECT_ID,EPOCH,MEAN_MOTION,ECCENTRICITY,INCLINATION,RA_OF_ASC_NODE,ARG_OF_PERICENTER,MEAN_ANOMALY,EPHEMERIS_TYPE,CLASSIFICATION_TYPE,NORAD_CAT_ID,ELEMENT_SET_NO,REV_AT_EPOCH,BSTAR,MEAN_MOTION_DOT,MEAN_MOTION_DDOT
STARLINK-37406,2026-114T,2026-06-11T05:48:57.520224,15.80899406,.00016725,53.1585,231.8983,46.0827,314.0334,0,U,69199,999,383,.1002317E-2,.20207E-2,0
STARLINK-37761,2026-114U,2026-06-10T17:39:34.596576,15.80693581,.00040541,53.1585,234.4280,299.9066,60.1554,0,U,69200,999,375,-.21196161E-2,-.397481E-2,0
STARLINK-37754,2026-114V,2026-06-11T05:46:31.009152,15.80923082,.00012385,53.1584,231.8870,52.8563,307.2573,0,U,69201,999,383,.92911286E-3,.187137E-2,0
STARLINK-37649,2026-114W,2026-06-11T05:45:43.165152,15.80956533,.00021925,53.1584,231.8837,33.7998,326.3164,0,U,69202,999,383,.12820316E-2,.261142E-2,0
STARLINK-37604,2026-114X,2026-06-11T05:44:38.232096,15.80948391,.00016241,53.1582,231.8792,36.1454,323.9678,0,U,69203,999,383,.11535129E-2,.234057E-2,0
STARLINK-37669,2026-114Y,2026-06-11T05:43:33.291264,15.80933024,.00014119,53.1584,231.8734,42.1050,318.0081,0,U,69204,999,383,.95073344E-3,.191698E-2,0
STARLINK-37691,2026-114Z,2026-06-11T05:49:06.418560,15.78098235,.0001416,53.1592,231.8984,60.2419,299.8743,0,U,69205,999,383,.84754672E-3,.149379E-2,0
STARLINK-37671,2026-114AA,2026-06-11T05:41:23.714592,15.80961968,.00014664,53.1583,231.8629,51.4632,308.6522,0,U,69206,999,383,.12345025E-2,.251199E-2,0
STARLINK-37647,2026-114AB,2026-06-11T05:42:28.476576,15.80938416,.00013374,53.1586,231.8688,42.5166,317.5960,0,U,69207,999,383,.88741679E-3,.178656E-2,0
STARLINK-37562,2026-114AC,2026-06-11T06:00:02.000160,15.78004237,.0001112,53.1594,231.7983,98.8921,334.3543,0,U,69208,999,386,.28310361E-3,.48655E-3,0
STARLINK-37682,2026-114AD,2026-06-11T05:38:09.318048,15.80963558,.00012651,53.1583,231.8475,64.1970,295.9183,0,U,69209,999,383,.13013807E-2,.265303E-2,0
STARLINK-37402,2026-114AE,2026-06-11T05:37:04.482624,15.80938329,.00016895,53.1584,231.8426,35.4809,324.6326,0,U,69210,999,383,.95584001E-3,.192805E-2,0
STARLINK-37613,2026-115A,2026-06-11T06:00:02.000160,15.55933550,.0001391,97.2838,179.2986,117.4410,198.1300,0,U,69211,999,373,-.44898441E-1,-.2733524E-1,0
STARLINK-37713,2026-115B,2026-06-11T06:00:02.000160,15.68189785,.00017188,97.2846,179.3708,79.8709,34.9689,0,U,69212,999,373,-.17436583E-1,-.1709499E-1,0
STARLINK-37716,2026-115C,2026-06-11T06:00:02.000160,15.76571058,.0001667,97.2842,179.3863,80.5773,77.0246,0,U,69213,999,373,-.19467586E-1,-.2681139E-1,0
STARLINK-37620,2026-115D,2026-06-11T06:00:02.000160,15.51747418,.00015094,97.2844,179.2728,84.8547,164.1469,0,U,69214,999,373,-.62133162E-1,-.3241963E-1,0
STARLINK-37700,2026-115E,2026-06-11T06:00:02.000160,15.49183616,.00011102,97.2845,179.1838,98.2430,300.5283,0,U,69215,999,373,.14496779E-4,.698E-5,0
STARLINK-37766,2026-115F,2026-06-11T06:00:02.000160,15.78663362,.0001762,97.2838,179.3958,81.7614,97.9815,0,U,69216,999,373,-.13783226E-1,-.2064025E-1,0
STARLINK-37763,2026-115G,2026-06-11T06:00:02.000160,15.72430564,.00011508,97.2845,179.3870,85.8362,72.7898,0,U,69217,999,373,-.62568567E-2,-.758943E-2,0
STARLINK-37724,2026-115H,2026-06-11T05:11:26.630016,15.80893161,.00012232,97.2833,179.3657,110.3669,249.7731,0,U,69218,999,374,.83164515E-3,.162735E-2,0
STARLINK-37758,2026-115J,2026-06-11T05:06:49.496832,15.80914400,.00008575,97.2826,179.3705,59.7117,300.4236,0,U,69219,999,374,.12483517E-2,.246978E-2,0
STARLINK-37201,2026-115K,2026-06-11T05:08:36.156768,15.80899143,.0000855,97.2833,179.3691,1.2553,358.8717,0,U,69220,999,374,.10885709E-2,.214388E-2,0
STARLINK-37728,2026-115L,2026-06-11T05:05:07.140480,15.80915800,.00006316,97.2829,179.3727,48.1452,311.9870,0,U,69221,999,374,.114788E-2,.226569E-2,0
STARLINK-37760,2026-115M,2026-06-11T05:09:04.113216,15.80894105,.00011086,97.2832,179.3691,85.6139,274.5256,0,U,69222,999,374,.89158213E-3,.174722E-2,0
STARLINK-37759,2026-115N,2026-06-11T06:00:02.000160,15.72829493,.00016945,97.2844,179.4037,87.4337,112.6118,0,U,69223,999,373,-.22219109E-1,-.260979E-1,0
STARLINK-37725,2026-115P,2026-06-11T05:04:44.998752,15.80915717,.00009972,97.2829,179.3728,76.4801,283.6578,0,U,69224,999,374,.13246881E-2,.262579E-2,0
STARLINK-37770,2026-115Q,2026-06-11T05:05:46.315968,15.80914829,.00009503,97.2831,179.3713,63.9445,296.1921,0,U,69225,999,374,.11143764E-2,.219767E-2,0
STARLINK-37736,2026-115R,2026-06-10T23:00:08.435808,15.80911383,.00026665,97.2824,179.1048,58.0756,302.0772,0,U,69226,999,370,.13337851E-2,.264401E-2,0
STARLINK-37737,2026-115S,2026-06-11T03:30:43.282656,15.80898997,.00011349,97.2828,179.3083,79.5873,280.5523,0,U,69227,999,373,.10144274E-2,.199429E-2,0
STARLINK-37618,2026-115T,2026-06-11T06:00:02.000160,15.71620067,.00018014,97.2843,179.4116,83.9843,134.8169,0,U,69228,999,373,-.231017E-1,-.2581437E-1,0
